ONEWEB-0509             
1 54127U 22138Q   24105.06267296 -.00000007  00000+0 -49669-4 0  9991
2 54127  87.9093 103.0225 0001747  88.8191 271.3142 13.19726789 72938
ONEWEB-0510             
1 54128U 22138R   24105.88213564  .00000073  00000+0  14697-3 0  9994
2 54128  87.9174  72.2809 0002199  95.6964 264.4420 13.20770017 75468
ONEWEB-0511             
1 54129U 22138S   24105.05951486 -.00000017  00000+0 -75193-4 0  9995
2 54129  87.9094 103.0257 0001911  75.1727 284.9618 13.19724755 72965
ONEWEB-0512             
1 54130U 22138T   24105.88559909  .00000111  00000+0  24598-3 0  9997
2 54130  87.9102 102.8717 0001404  85.8171 274.3122 13.19724988 73044
ONEWEB-0513             
1 54131U 22138U   24105.02240318  .00000045  00000+0  80363-4 0  9994
2 54131  87.9098 103.0399 0001467  74.4947 285.6347 13.19725108 72815
ONEWEB-0514             
1 54132U 22138V   24104.53668708 -.00000025  00000+0 -95120-4 0  9994
2 54132  87.9095 103.1352 0001950  87.5122 272.6234 13.19724201 72016
ONEWEB-0515             
1 54133U 22138W   24105.41498378  .00000067  00000+0  13394-3 0  9993
2 54133  87.9174  72.3542 0002838 103.6877 256.4573 13.20769530 75392
ONEWEB-0516             
1 54134U 22138X   24105.04213569  .00000039  00000+0  64395-4 0  9997
2 54134  87.9102 103.0409 0001830  91.5890 268.5452 13.19724892 72958
